STARLINK-36247          
1 68245U 26054P   26089.79844432  .00261755  00000+0  12828-2 0  9996
2 68245  53.1596 206.7804 0000905  74.3025 285.8097 15.80993871  2112
STARLINK-37043          
1 68246U 26054Q   26089.79694660  .00256003  00000+0  12562-2 0  9998
2 68246  53.1599 206.7702 0001070  53.0038 307.1083 15.80981879  2113
STARLINK-37044          
1 68247U 26054R   26089.79619500  .00252234  00000+0  12381-2 0  9990
2 68247  53.1598 206.7649 0000623  67.6414 292.4674 15.80985019  2117
STARLINK-36997          
1 68248U 26054S   26089.91667824 -.00035591  00000+0 -22889-3 0  9999
2 68248  53.1601 206.2483 0001055  71.4371 212.5419 15.75248012  3322
STARLINK-37141          
1 68249U 26054T   26089.73148035  .00128559  00000+0  64313-3 0  9991
2 68249  53.1599 207.0719 0001158  83.3444 276.7711 15.80943811  2104
STARLINK-37087          
1 68250U 26054U   26089.91667824 -.01792432  00000+0 -12374-1 0  9993
2 68250  53.1597 206.1492 0000834  75.1104 257.2652 15.76899708  3327
STARLINK-36274          
1 68251U 26054V   26089.91667824 -.00076747  00000+0 -50049-3 0  9990
2 68251  53.1599 206.1993 0001109  75.5967 232.2671 15.75263477  3368
STARLINK-37085          
1 68252U 26054W   26089.72923175  .00201523  00000+0  99789-3 0  9998
2 68252  53.1597 207.0563 0001447  71.0373 289.0807 15.80938465  2101
STARLINK-37086          
1 68253U 26054X   26089.72848029  .00308397  00000+0  15038-2 0  9994
2 68253  53.1593 207.0517 0001376  67.4956 292.6212 15.80975794  2100
STARLINK-37084          
1 68254U 26054Y   26089.91667824 -.00039000  00000+0 -19483-3 0  9991
2 68254  53.1593 206.0919 0000916  73.3867 286.9893 15.80885909  3326
STARLINK-37075          
1 68255U 26054Z   26089.79094634  .00236019  00000+0  11615-2 0  9996
2 68255  53.1595 206.7297 0001640  87.7341 272.3870 15.80975294  2113
STARLINK-36333          
1 68256U 26054AA  26089.91667824 -.00117442  00000+0 -59796-3 0  9991
2 68256  53.1629 206.0830 0001150  51.9105 312.7234 15.80931428  3367
