CCSDS_OMM_VERS = 2.0
CREATION_DATE  = 
ORIGINATOR     = 

OBJECT_NAME    = STARLINK-36247
OBJECT_ID      = 2026-054P
CENTER_NAME    = EARTH
REF_FRAME      = TEME
TIME_SYSTEM    = UTC
MEAN_ELEMENT_THEORY = SGP/SGP4

EPOCH          = 2026-03-30T19:09:45.589248
MEAN_MOTION    = 15.80993871
ECCENTRICITY   = .00009054
INCLINATION    = 53.1596
RA_OF_ASC_NODE = 206.7804
ARG_OF_PERICENTER = 74.3025
MEAN_ANOMALY   = 285.8097

EPHEMERIS_TYPE = 0
CLASSIFICATION_TYPE = U
NORAD_CAT_ID   = 68245
ELEMENT_SET_NO = 999
REV_AT_EPOCH   = 211
BSTAR          = .12827551E-2
MEAN_MOTION_DOT = .261755E-2
MEAN_MOTION_DDOT = 0

CCSDS_OMM_VERS = 2.0
CREATION_DATE  = 
ORIGINATOR     = 

OBJECT_NAME    = STARLINK-37043
OBJECT_ID      = 2026-054Q
CENTER_NAME    = EARTH
REF_FRAME      = TEME
TIME_SYSTEM    = UTC
MEAN_ELEMENT_THEORY = SGP/SGP4

EPOCH          = 2026-03-30T19:07:36.186240
MEAN_MOTION    = 15.80981879
ECCENTRICITY   = .00010706
INCLINATION    = 53.1599
RA_OF_ASC_NODE = 206.7702
ARG_OF_PERICENTER = 53.0038
MEAN_ANOMALY   = 307.1083

EPHEMERIS_TYPE = 0
CLASSIFICATION_TYPE = U
NORAD_CAT_ID   = 68246
ELEMENT_SET_NO = 999
REV_AT_EPOCH   = 211
BSTAR          = .12561861E-2
MEAN_MOTION_DOT = .256003E-2
MEAN_MOTION_DDOT = 0

CCSDS_OMM_VERS = 2.0
CREATION_DATE  = 
ORIGINATOR     = 

OBJECT_NAME    = STARLINK-37044
OBJECT_ID      = 2026-054R
CENTER_NAME    = EARTH
REF_FRAME      = TEME
TIME_SYSTEM    = UTC
MEAN_ELEMENT_THEORY = SGP/SGP4

EPOCH          = 2026-03-30T19:06:31.248000
MEAN_MOTION    = 15.80985019
ECCENTRICITY   = .00006233
INCLINATION    = 53.1598
RA_OF_ASC_NODE = 206.7649
ARG_OF_PERICENTER = 67.6414
MEAN_ANOMALY   = 292.4674

EPHEMERIS_TYPE = 0
CLASSIFICATION_TYPE = U
NORAD_CAT_ID   = 68247
ELEMENT_SET_NO = 999
REV_AT_EPOCH   = 211
BSTAR          = .12380849E-2
MEAN_MOTION_DOT = .252234E-2
MEAN_MOTION_DDOT = 0

CCSDS_OMM_VERS = 2.0
CREATION_DATE  = 
ORIGINATOR     = 

OBJECT_NAME    = STARLINK-36997
OBJECT_ID      = 2026-054S
CENTER_NAME    = EARTH
REF_FRAME      = TEME
TIME_SYSTEM    = UTC
MEAN_ELEMENT_THEORY = SGP/SGP4

EPOCH          = 2026-03-30T22:00:00.999936
MEAN_MOTION    = 15.75248012
ECCENTRICITY   = .00010552
INCLINATION    = 53.1601
RA_OF_ASC_NODE = 206.2483
ARG_OF_PERICENTER = 71.4371
MEAN_ANOMALY   = 212.5419

EPHEMERIS_TYPE = 0
CLASSIFICATION_TYPE = U
NORAD_CAT_ID   = 68248
ELEMENT_SET_NO = 999
REV_AT_EPOCH   = 332
BSTAR          = -.22889305E-3
MEAN_MOTION_DOT = -.35591E-3
MEAN_MOTION_DDOT = 0

CCSDS_OMM_VERS = 2.0
CREATION_DATE  = 
ORIGINATOR     = 

OBJECT_NAME    = STARLINK-37141
OBJECT_ID      = 2026-054T
CENTER_NAME    = EARTH
REF_FRAME      = TEME
TIME_SYSTEM    = UTC
MEAN_ELEMENT_THEORY = SGP/SGP4

EPOCH          = 2026-03-30T17:33:19.902240
MEAN_MOTION    = 15.80943811
ECCENTRICITY   = .00011582
INCLINATION    = 53.1599
RA_OF_ASC_NODE = 207.0719
ARG_OF_PERICENTER = 83.3444
MEAN_ANOMALY   = 276.7711

EPHEMERIS_TYPE = 0
CLASSIFICATION_TYPE = U
NORAD_CAT_ID   = 68249
ELEMENT_SET_NO = 999
REV_AT_EPOCH   = 210
BSTAR          = .64312913E-3
MEAN_MOTION_DOT = .128559E-2
MEAN_MOTION_DDOT = 0

CCSDS_OMM_VERS = 2.0
CREATION_DATE  = 
ORIGINATOR     = 

OBJECT_NAME    = STARLINK-37087
OBJECT_ID      = 2026-054U
CENTER_NAME    = EARTH
REF_FRAME      = TEME
TIME_SYSTEM    = UTC
MEAN_ELEMENT_THEORY = SGP/SGP4

EPOCH          = 2026-03-30T22:00:00.999936
MEAN_MOTION    = 15.76899708
ECCENTRICITY   = .00008347
INCLINATION    = 53.1597
RA_OF_ASC_NODE = 206.1492
ARG_OF_PERICENTER = 75.1104
MEAN_ANOMALY   = 257.2652

EPHEMERIS_TYPE = 0
CLASSIFICATION_TYPE = U
NORAD_CAT_ID   = 68250
ELEMENT_SET_NO = 999
REV_AT_EPOCH   = 332
BSTAR          = -.12373628E-1
MEAN_MOTION_DOT = -.1792432E-1
MEAN_MOTION_DDOT = 0

CCSDS_OMM_VERS = 2.0
CREATION_DATE  = 
ORIGINATOR     = 

OBJECT_NAME    = STARLINK-36274
OBJECT_ID      = 2026-054V
CENTER_NAME    = EARTH
REF_FRAME      = TEME
TIME_SYSTEM    = UTC
MEAN_ELEMENT_THEORY = SGP/SGP4

EPOCH          = 2026-03-30T22:00:00.999936
MEAN_MOTION    = 15.75263477
ECCENTRICITY   = .00011092
INCLINATION    = 53.1599
RA_OF_ASC_NODE = 206.1993
ARG_OF_PERICENTER = 75.5967
MEAN_ANOMALY   = 232.2671

EPHEMERIS_TYPE = 0
CLASSIFICATION_TYPE = U
NORAD_CAT_ID   = 68251
ELEMENT_SET_NO = 999
REV_AT_EPOCH   = 336
BSTAR          = -.50049316E-3
MEAN_MOTION_DOT = -.76747E-3
MEAN_MOTION_DDOT = 0

CCSDS_OMM_VERS = 2.0
CREATION_DATE  = 
ORIGINATOR     = 

OBJECT_NAME    = STARLINK-37085
OBJECT_ID      = 2026-054W
CENTER_NAME    = EARTH
REF_FRAME      = TEME
TIME_SYSTEM    = UTC
MEAN_ELEMENT_THEORY = SGP/SGP4

EPOCH          = 2026-03-30T17:30:05.623200
MEAN_MOTION    = 15.80938465
ECCENTRICITY   = .00014473
INCLINATION    = 53.1597
RA_OF_ASC_NODE = 207.0563
ARG_OF_PERICENTER = 71.0373
MEAN_ANOMALY   = 289.0807

EPHEMERIS_TYPE = 0
CLASSIFICATION_TYPE = U
NORAD_CAT_ID   = 68252
ELEMENT_SET_NO = 999
REV_AT_EPOCH   = 210
BSTAR          = .99789041E-3
MEAN_MOTION_DOT = .201523E-2
MEAN_MOTION_DDOT = 0

CCSDS_OMM_VERS = 2.0
CREATION_DATE  = 
ORIGINATOR     = 

OBJECT_NAME    = STARLINK-37086
OBJECT_ID      = 2026-054X
CENTER_NAME    = EARTH
REF_FRAME      = TEME
TIME_SYSTEM    = UTC
MEAN_ELEMENT_THEORY = SGP/SGP4

EPOCH          = 2026-03-30T17:29:00.697056
MEAN_MOTION    = 15.80975794
ECCENTRICITY   = .00013766
INCLINATION    = 53.1593
RA_OF_ASC_NODE = 207.0517
ARG_OF_PERICENTER = 67.4956
MEAN_ANOMALY   = 292.6212

EPHEMERIS_TYPE = 0
CLASSIFICATION_TYPE = U
NORAD_CAT_ID   = 68253
ELEMENT_SET_NO = 999
REV_AT_EPOCH   = 210
BSTAR          = .1503764E-2
MEAN_MOTION_DOT = .308397E-2
MEAN_MOTION_DDOT = 0

CCSDS_OMM_VERS = 2.0
CREATION_DATE  = 
ORIGINATOR     = 

OBJECT_NAME    = STARLINK-37084
OBJECT_ID      = 2026-054Y
CENTER_NAME    = EARTH
REF_FRAME      = TEME
TIME_SYSTEM    = UTC
MEAN_ELEMENT_THEORY = SGP/SGP4

EPOCH          = 2026-03-30T22:00:00.999936
MEAN_MOTION    = 15.80885909
ECCENTRICITY   = .00009168
INCLINATION    = 53.1593
RA_OF_ASC_NODE = 206.0919
ARG_OF_PERICENTER = 73.3867
MEAN_ANOMALY   = 286.9893

EPHEMERIS_TYPE = 0
CLASSIFICATION_TYPE = U
NORAD_CAT_ID   = 68254
ELEMENT_SET_NO = 999
REV_AT_EPOCH   = 332
BSTAR          = -.19482984E-3
MEAN_MOTION_DOT = -.39E-3
MEAN_MOTION_DDOT = 0

CCSDS_OMM_VERS = 2.0
CREATION_DATE  = 
ORIGINATOR     = 

OBJECT_NAME    = STARLINK-37075
OBJECT_ID      = 2026-054Z
CENTER_NAME    = EARTH
REF_FRAME      = TEME
TIME_SYSTEM    = UTC
MEAN_ELEMENT_THEORY = SGP/SGP4

EPOCH          = 2026-03-30T18:58:57.763776
MEAN_MOTION    = 15.80975294
ECCENTRICITY   = .00016406
INCLINATION    = 53.1595
RA_OF_ASC_NODE = 206.7297
ARG_OF_PERICENTER = 87.7341
MEAN_ANOMALY   = 272.3870

EPHEMERIS_TYPE = 0
CLASSIFICATION_TYPE = U
NORAD_CAT_ID   = 68255
ELEMENT_SET_NO = 999
REV_AT_EPOCH   = 211
BSTAR          = .11614515E-2
MEAN_MOTION_DOT = .236019E-2
MEAN_MOTION_DDOT = 0

CCSDS_OMM_VERS = 2.0
CREATION_DATE  = 
ORIGINATOR     = 

OBJECT_NAME    = STARLINK-36333
OBJECT_ID      = 2026-054AA
CENTER_NAME    = EARTH
REF_FRAME      = TEME
TIME_SYSTEM    = UTC
MEAN_ELEMENT_THEORY = SGP/SGP4

EPOCH          = 2026-03-30T22:00:00.999936
MEAN_MOTION    = 15.80931428
ECCENTRICITY   = .00011505
INCLINATION    = 53.1629
RA_OF_ASC_NODE = 206.0830
ARG_OF_PERICENTER = 51.9105
MEAN_ANOMALY   = 312.7234

EPHEMERIS_TYPE = 0
CLASSIFICATION_TYPE = U
NORAD_CAT_ID   = 68256
ELEMENT_SET_NO = 999
REV_AT_EPOCH   = 336
BSTAR          = -.59795581E-3
MEAN_MOTION_DOT = -.117442E-2
MEAN_MOTION_DDOT = 0

